[
    {
        "Altitude(m)": 705677.4724227106,
        "Argument of Periapsis(deg)": 0.010251109067964361,
        "Eccentricity": 0.0,
        "Inclination(deg)": 45.0,
        "Latitude(deg)": 37.66229995570927,
        "Longitude(deg)": 24.45332180999105,
        "Mean Anomaly(deg)": 59.470794982732734,
        "RAAN(deg)": 74.99032325268763,
        "Satellite Name": "Constellation 1 333",
        "Satellite Number": 333,
        "Semi-Major Axis(m)": 7083131.272910544,
        "Time(s)": 171
    },
    {
        "Altitude(m)": 705683.1260675539,
        "Argument of Periapsis(deg)": 0.010311057074209765,
        "Eccentricity": 0.0,
        "Inclination(deg)": 45.0,
        "Latitude(deg)": 37.68988047754482,
        "Longitude(deg)": 24.517471416073935,
        "Mean Anomaly(deg)": 59.53149612298261,
        "RAAN(deg)": 74.99026666352205,
        "Satellite Name": "Constellation 1 333",
        "Satellite Number": 333,
        "Semi-Major Axis(m)": 7083131.272910544,
        "Time(s)": 172
    },
    {
        "Altitude(m)": 705688.7748147397,
        "Argument of Periapsis(deg)": 0.010371005080455171,
        "Eccentricity": 0.0,
        "Inclination(deg)": 45.0,
        "Latitude(deg)": 37.717421343888134,
        "Longitude(deg)": 24.581671526567042,
        "Mean Anomaly(deg)": 59.59219726323253,
        "RAAN(deg)": 74.99021007435648,
        "Satellite Name": "Constellation 1 333",
        "Satellite Number": 333,
        "Semi-Major Axis(m)": 7083131.272910544,
        "Time(s)": 173
    },
    {
        "Altitude(m)": 705694.4186293248,
        "Argument of Periapsis(deg)": 0.010430953086700577,
        "Eccentricity": 0.0,
        "Inclination(deg)": 45.0,
        "Latitude(deg)": 37.74492248680476,
        "Longitude(deg)": 24.645922156357862,
        "Mean Anomaly(deg)": 59.65289840348246,
        "RAAN(deg)": 74.9901534851909,
        "Satellite Name": "Constellation 1 333",
        "Satellite Number": 333,
        "Semi-Major Axis(m)": 7083131.272910544,
        "Time(s)": 174
    },
    {
        "Altitude(m)": 705700.0574764003,
        "Argument of Periapsis(deg)": 0.010490901092945983,
        "Eccentricity": 0.0,
        "Inclination(deg)": 45.0,
        "Latitude(deg)": 37.772383838322355,
        "Longitude(deg)": 24.710223320006637,
        "Mean Anomaly(deg)": 59.71359954373234,
        "RAAN(deg)": 74.99009689602534,
        "Satellite Name": "Constellation 1 333",
        "Satellite Number": 333,
        "Semi-Major Axis(m)": 7083131.272910544,
        "Time(s)": 175
    },
    {
        "Altitude(m)": 705705.6913211021,
        "Argument of Periapsis(deg)": 0.010550849099191389,
        "Eccentricity": 0.0,
        "Inclination(deg)": 45.0,
        "Latitude(deg)": 37.79980533043104,
        "Longitude(deg)": 24.774575031744593,
        "Mean Anomaly(deg)": 59.77430068398225,
        "RAAN(deg)": 74.99004030685978,
        "Satellite Name": "Constellation 1 333",
        "Satellite Number": 333,
        "Semi-Major Axis(m)": 7083131.272910544,
        "Time(s)": 176
    },
    {
        "Altitude(m)": 705711.3201286022,
        "Argument of Periapsis(deg)": 0.010610797105436795,
        "Eccentricity": 0.0,
        "Inclination(deg)": 45.0,
        "Latitude(deg)": 37.82718689508382,
        "Longitude(deg)": 24.83897730547272,
        "Mean Anomaly(deg)": 59.83500182423212,
        "RAAN(deg)": 74.9899837176942,
        "Satellite Name": "Constellation 1 333",
        "Satellite Number": 333,
        "Semi-Major Axis(m)": 7083131.272910544,
        "Time(s)": 177
    },
    {
        "Altitude(m)": 705716.9438641219,
        "Argument of Periapsis(deg)": 0.0106707451116822,
        "Eccentricity": 0.0,
        "Inclination(deg)": 45.0,
        "Latitude(deg)": 37.854528464196726,
        "Longitude(deg)": 24.90342998666342,
        "Mean Anomaly(deg)": 59.89570296448204,
        "RAAN(deg)": 74.98992712852863,
        "Satellite Name": "Constellation 1 333",
        "Satellite Number": 333,
        "Semi-Major Axis(m)": 7083131.272910544,
        "Time(s)": 178
    },
    {
        "Altitude(m)": 705722.5624929105,
        "Argument of Periapsis(deg)": 0.010730693117927606,
        "Eccentricity": 0.0,
        "Inclination(deg)": 45.0,
        "Latitude(deg)": 37.88182996965027,
        "Longitude(deg)": 24.96793342474695,
        "Mean Anomaly(deg)": 59.956404104731924,
        "RAAN(deg)": 74.98987053936307,
        "Satellite Name": "Constellation 1 333",
        "Satellite Number": 333,
        "Semi-Major Axis(m)": 7083131.272910544,
        "Time(s)": 179
    },
    {
        "Altitude(m)": 705728.1759802682,
        "Argument of Periapsis(deg)": 0.01079064112417301,
        "Eccentricity": 0.0,
        "Inclination(deg)": 45.0,
        "Latitude(deg)": 37.909091343288175,
        "Longitude(deg)": 25.032487464527637,
        "Mean Anomaly(deg)": 60.01710524498183,
        "RAAN(deg)": 74.98981395019749,
        "Satellite Name": "Constellation 1 333",
        "Satellite Number": 333,
        "Semi-Major Axis(m)": 7083131.272910544,
        "Time(s)": 180
    },
    {
        "Altitude(m)": 705733.7842915282,
        "Argument of Periapsis(deg)": 0.010850589130418416,
        "Eccentricity": 0.0,
        "Inclination(deg)": 45.0,
        "Latitude(deg)": 37.936312516919,
        "Longitude(deg)": 25.09709211857105,
        "Mean Anomaly(deg)": 60.0778063852317,
        "RAAN(deg)": 74.98975736103192,
        "Satellite Name": "Constellation 1 333",
        "Satellite Number": 333,
        "Semi-Major Axis(m)": 7083131.272910544,
        "Time(s)": 181
    },
    {
        "Altitude(m)": 705739.3873920682,
        "Argument of Periapsis(deg)": 0.01091053713666382,
        "Eccentricity": 0.0,
        "Inclination(deg)": 45.0,
        "Latitude(deg)": 37.96349342231617,
        "Longitude(deg)": 25.161747399105067,
        "Mean Anomaly(deg)": 60.13850752548162,
        "RAAN(deg)": 74.98970077186635,
        "Satellite Name": "Constellation 1 333",
        "Satellite Number": 333,
        "Semi-Major Axis(m)": 7083131.272910544,
        "Time(s)": 182
    },
    {
        "Altitude(m)": 705744.9852473169,
        "Argument of Periapsis(deg)": 0.010970485142909228,
        "Eccentricity": 0.0,
        "Inclination(deg)": 45.0,
        "Latitude(deg)": 37.990633991218345,
        "Longitude(deg)": 25.226453318018617,
        "Mean Anomaly(deg)": 60.19920866573153,
        "RAAN(deg)": 74.98964418270079,
        "Satellite Name": "Constellation 1 333",
        "Satellite Number": 333,
        "Semi-Major Axis(m)": 7083131.272910544,
        "Time(s)": 183
    },
    {
        "Altitude(m)": 705750.5778227277,
        "Argument of Periapsis(deg)": 0.011030433149154634,
        "Eccentricity": 0.0,
        "Inclination(deg)": 45.0,
        "Latitude(deg)": 38.01773415532998,
        "Longitude(deg)": 25.29120988686017,
        "Mean Anomaly(deg)": 60.25990980598144,
        "RAAN(deg)": 74.98958759353522,
        "Satellite Name": "Constellation 1 333",
        "Satellite Number": 333,
        "Semi-Major Axis(m)": 7083131.272910544,
        "Time(s)": 184
    },
    {
        "Altitude(m)": 705756.1650838023,
        "Argument of Periapsis(deg)": 0.01109038115540004,
        "Eccentricity": 0.0,
        "Inclination(deg)": 45.0,
        "Latitude(deg)": 38.04479384632138,
        "Longitude(deg)": 25.356016948739224,
        "Mean Anomaly(deg)": 60.32061094623134,
        "RAAN(deg)": 74.98953100436965,
        "Satellite Name": "Constellation 1 333",
        "Satellite Number": 333,
        "Semi-Major Axis(m)": 7083131.272910544,
        "Time(s)": 185
    },
    {
        "Altitude(m)": 705761.7469960852,
        "Argument of Periapsis(deg)": 0.011150329161645444,
        "Eccentricity": 0.0,
        "Inclination(deg)": 45.0,
        "Latitude(deg)": 38.071812995830186,
        "Longitude(deg)": 25.420874850713265,
        "Mean Anomaly(deg)": 60.38131208648121,
        "RAAN(deg)": 74.98947441520407,
        "Satellite Name": "Constellation 1 333",
        "Satellite Number": 333,
        "Semi-Major Axis(m)": 7083131.272910544,
        "Time(s)": 186
    },
    {
        "Altitude(m)": 705767.3235251701,
        "Argument of Periapsis(deg)": 0.01121027716789085,
        "Eccentricity": 0.0,
        "Inclination(deg)": 45.0,
        "Latitude(deg)": 38.09879153546025,
        "Longitude(deg)": 25.485783435203707,
        "Mean Anomaly(deg)": 60.44201322673113,
        "RAAN(deg)": 74.9894178260385,
        "Satellite Name": "Constellation 1 333",
        "Satellite Number": 333,
        "Semi-Major Axis(m)": 7083131.272910544,
        "Time(s)": 187
    },
    {
        "Altitude(m)": 705772.8946366761,
        "Argument of Periapsis(deg)": 0.011270225174136258,
        "Eccentricity": 0.0,
        "Inclination(deg)": 45.0,
        "Latitude(deg)": 38.12572939678302,
        "Longitude(deg)": 25.550742712382824,
        "Mean Anomaly(deg)": 60.50271436698102,
        "RAAN(deg)": 74.98936123687294,
        "Satellite Name": "Constellation 1 333",
        "Satellite Number": 333,
        "Semi-Major Axis(m)": 7083131.272910544,
        "Time(s)": 188
    },
    {
        "Altitude(m)": 705778.4602962798,
        "Argument of Periapsis(deg)": 0.011330173180381662,
        "Eccentricity": 0.0,
        "Inclination(deg)": 45.0,
        "Latitude(deg)": 38.152626511337836,
        "Longitude(deg)": 25.61575269207499,
        "Mean Anomaly(deg)": 60.56341550723092,
        "RAAN(deg)": 74.98930464770736,
        "Satellite Name": "Constellation 1 333",
        "Satellite Number": 333,
        "Semi-Major Axis(m)": 7083131.272910544,
        "Time(s)": 189
    }
]